[{"OBJECT_NAME":"KUIPER-00149","OBJECT_ID":"2025-228X","EPOCH":"2026-03-09T21:19:04.016352","MEAN_MOTION":14.80004702,"ECCENTRICITY":0.00017534,"INCLINATION":51.9019,"RA_OF_ASC_NODE":337.2239,"ARG_OF_PERICENTER":84.5973,"MEAN_ANOMALY":275.5189,"EPHEMERIS_TYPE":0,"CLASSIFICATION_TYPE":"U","NORAD_CAT_ID":65968,"ELEMENT_SET_NO":999,"REV_AT_EPOCH":2357,"BSTAR":0.00078763897,"MEAN_MOTION_DOT":5.798e-5,"MEAN_MOTION_DDOT":0},{"OBJECT_NAME":"CZ-4C DEB","OBJECT_ID":"2018-031J","EPOCH":"2026-03-08T23:16:23.138400","MEAN_MOTION":14.80472658,"ECCENTRICITY":0.00037528,"INCLINATION":97.7313,"RA_OF_ASC_NODE":126.5608,"ARG_OF_PERICENTER":246.8859,"MEAN_ANOMALY":113.1959,"EPHEMERIS_TYPE":0,"CLASSIFICATION_TYPE":"U","NORAD_CAT_ID":43270,"ELEMENT_SET_NO":999,"REV_AT_EPOCH":43811,"BSTAR":0.00014078752,"MEAN_MOTION_DOT":1.027e-5,"MEAN_MOTION_DDOT":0}]
